CCSDS_OMM_VERS = 2.0
CREATION_DATE  = 
ORIGINATOR     = 

OBJECT_NAME    = COSMOS 2058
OBJECT_ID      = 1990-010A
CENTER_NAME    = EARTH
REF_FRAME      = TEME
TIME_SYSTEM    = UTC
MEAN_ELEMENT_THEORY = SGP/SGP4

EPOCH          = 2026-03-30T05:42:37.440576
MEAN_MOTION    = 15.11512605
ECCENTRICITY   = .0007475
INCLINATION    = 82.4697
RA_OF_ASC_NODE = 27.1797
ARG_OF_PERICENTER = 260.7887
MEAN_ANOMALY   = 99.2498

EPHEMERIS_TYPE = 0
CLASSIFICATION_TYPE = U
NORAD_CAT_ID   = 20465
ELEMENT_SET_NO = 999
REV_AT_EPOCH   = 94534
BSTAR          = .39334436E-3
MEAN_MOTION_DOT = .6693E-4
MEAN_MOTION_DDOT = 0

CCSDS_OMM_VERS = 2.0
CREATION_DATE  = 
ORIGINATOR     = 

OBJECT_NAME    = SL-14 R/B
OBJECT_ID      = 1990-010B
CENTER_NAME    = EARTH
REF_FRAME      = TEME
TIME_SYSTEM    = UTC
MEAN_ELEMENT_THEORY = SGP/SGP4

EPOCH          = 2026-03-30T04:34:24.053088
MEAN_MOTION    = 14.83588466
ECCENTRICITY   = .00186596
INCLINATION    = 82.4999
RA_OF_ASC_NODE = 248.1261
ARG_OF_PERICENTER = 229.5722
MEAN_ANOMALY   = 130.3866

EPHEMERIS_TYPE = 0
CLASSIFICATION_TYPE = U
NORAD_CAT_ID   = 20466
ELEMENT_SET_NO = 999
REV_AT_EPOCH   = 93152
BSTAR          = .77605568E-4
MEAN_MOTION_DOT = .665E-5
MEAN_MOTION_DDOT = 0

CCSDS_OMM_VERS = 2.0
CREATION_DATE  = 
ORIGINATOR     = 

OBJECT_NAME    = SL-14 R/B
OBJECT_ID      = 1990-018B
CENTER_NAME    = EARTH
REF_FRAME      = TEME
TIME_SYSTEM    = UTC
MEAN_ELEMENT_THEORY = SGP/SGP4

EPOCH          = 2026-03-30T00:36:44.575488
MEAN_MOTION    = 14.82165355
ECCENTRICITY   = .00168396
INCLINATION    = 82.5238
RA_OF_ASC_NODE = 204.0860
ARG_OF_PERICENTER = 29.7045
MEAN_ANOMALY   = 330.5122

EPHEMERIS_TYPE = 0
CLASSIFICATION_TYPE = U
NORAD_CAT_ID   = 20511
ELEMENT_SET_NO = 999
REV_AT_EPOCH   = 92559
BSTAR          = .67806488E-4
MEAN_MOTION_DOT = .565E-5
MEAN_MOTION_DDOT = 0

CCSDS_OMM_VERS = 2.0
CREATION_DATE  = 
ORIGINATOR     = 

OBJECT_NAME    = HST
OBJECT_ID      = 1990-037B
CENTER_NAME    = EARTH
REF_FRAME      = TEME
TIME_SYSTEM    = UTC
MEAN_ELEMENT_THEORY = SGP/SGP4

EPOCH          = 2026-03-30T04:02:06.137376
MEAN_MOTION    = 15.29803034
ECCENTRICITY   = .0001806
INCLINATION    = 28.4719
RA_OF_ASC_NODE = 260.2692
ARG_OF_PERICENTER = 5.3681
MEAN_ANOMALY   = 354.6933

EPHEMERIS_TYPE = 0
CLASSIFICATION_TYPE = U
NORAD_CAT_ID   = 20580
ELEMENT_SET_NO = 999
REV_AT_EPOCH   = 77645
BSTAR          = .34538E-3
MEAN_MOTION_DOT = .105E-3
MEAN_MOTION_DDOT = 0

CCSDS_OMM_VERS = 2.0
CREATION_DATE  = 
ORIGINATOR     = 

OBJECT_NAME    = SL-16 R/B
OBJECT_ID      = 1990-046B
CENTER_NAME    = EARTH
REF_FRAME      = TEME
TIME_SYSTEM    = UTC
MEAN_ELEMENT_THEORY = SGP/SGP4

EPOCH          = 2026-03-30T04:44:51.539136
MEAN_MOTION    = 14.15017096
ECCENTRICITY   = .00163864
INCLINATION    = 70.9979
RA_OF_ASC_NODE = 254.8386
ARG_OF_PERICENTER = 272.7977
MEAN_ANOMALY   = 87.1270

EPHEMERIS_TYPE = 0
CLASSIFICATION_TYPE = U
NORAD_CAT_ID   = 20625
ELEMENT_SET_NO = 999
REV_AT_EPOCH   = 85129
BSTAR          = .12875317E-3
MEAN_MOTION_DOT = .202E-5
MEAN_MOTION_DDOT = 0

CCSDS_OMM_VERS = 2.0
CREATION_DATE  = 
ORIGINATOR     = 

OBJECT_NAME    = COSMOS 2084
OBJECT_ID      = 1990-055A
CENTER_NAME    = EARTH
REF_FRAME      = TEME
TIME_SYSTEM    = UTC
MEAN_ELEMENT_THEORY = SGP/SGP4

EPOCH          = 2026-03-28T20:22:04.628352
MEAN_MOTION    = 15.05754696
ECCENTRICITY   = .00140427
INCLINATION    = 62.7892
RA_OF_ASC_NODE = 270.2268
ARG_OF_PERICENTER = 195.9981
MEAN_ANOMALY   = 164.0678

EPHEMERIS_TYPE = 0
CLASSIFICATION_TYPE = U
NORAD_CAT_ID   = 20663
ELEMENT_SET_NO = 999
REV_AT_EPOCH   = 93920
BSTAR          = .23409206E-3
MEAN_MOTION_DOT = .3212E-4
MEAN_MOTION_DDOT = 0

CCSDS_OMM_VERS = 2.0
CREATION_DATE  = 
ORIGINATOR     = 

OBJECT_NAME    = SL-6 R/B(2)
OBJECT_ID      = 1990-055D
CENTER_NAME    = EARTH
REF_FRAME      = TEME
TIME_SYSTEM    = UTC
MEAN_ELEMENT_THEORY = SGP/SGP4

EPOCH          = 2026-03-30T04:30:08.590752
MEAN_MOTION    = 15.03693642
ECCENTRICITY   = .00281621
INCLINATION    = 62.7835
RA_OF_ASC_NODE = 184.1389
ARG_OF_PERICENTER = 351.6551
MEAN_ANOMALY   = 8.4076

EPHEMERIS_TYPE = 0
CLASSIFICATION_TYPE = U
NORAD_CAT_ID   = 20666
ELEMENT_SET_NO = 999
REV_AT_EPOCH   = 94127
BSTAR          = .20755369E-3
MEAN_MOTION_DOT = .268E-4
MEAN_MOTION_DDOT = 0

CCSDS_OMM_VERS = 2.0
CREATION_DATE  = 
ORIGINATOR     = 

OBJECT_NAME    = SL-8 R/B
OBJECT_ID      = 1990-078B
CENTER_NAME    = EARTH
REF_FRAME      = TEME
TIME_SYSTEM    = UTC
MEAN_ELEMENT_THEORY = SGP/SGP4

EPOCH          = 2026-03-30T03:11:48.822144
MEAN_MOTION    = 14.89671734
ECCENTRICITY   = .0358258
INCLINATION    = 82.9025
RA_OF_ASC_NODE = 232.9133
ARG_OF_PERICENTER = 305.0467
MEAN_ANOMALY   = 51.7621

EPHEMERIS_TYPE = 0
CLASSIFICATION_TYPE = U
NORAD_CAT_ID   = 20775
ELEMENT_SET_NO = 999
REV_AT_EPOCH   = 81234
BSTAR          = .44065E-3
MEAN_MOTION_DOT = .1487E-3
MEAN_MOTION_DDOT = 0

CCSDS_OMM_VERS = 2.0
CREATION_DATE  = 
ORIGINATOR     = 

OBJECT_NAME    = SL-8 R/B
OBJECT_ID      = 1991-006B
CENTER_NAME    = EARTH
REF_FRAME      = TEME
TIME_SYSTEM    = UTC
MEAN_ELEMENT_THEORY = SGP/SGP4

EPOCH          = 2026-03-30T04:10:30.813600
MEAN_MOTION    = 13.77497446
ECCENTRICITY   = .0021759
INCLINATION    = 82.9443
RA_OF_ASC_NODE = 154.8167
ARG_OF_PERICENTER = 341.2995
MEAN_ANOMALY   = 47.5654

EPHEMERIS_TYPE = 0
CLASSIFICATION_TYPE = U
NORAD_CAT_ID   = 21088
ELEMENT_SET_NO = 999
REV_AT_EPOCH   = 76689
BSTAR          = .97488E-4
MEAN_MOTION_DOT = .112E-5
MEAN_MOTION_DDOT = 0

CCSDS_OMM_VERS = 2.0
CREATION_DATE  = 
ORIGINATOR     = 

OBJECT_NAME    = OKEAN-3
OBJECT_ID      = 1991-039A
CENTER_NAME    = EARTH
REF_FRAME      = TEME
TIME_SYSTEM    = UTC
MEAN_ELEMENT_THEORY = SGP/SGP4

EPOCH          = 2026-03-30T02:12:53.307360
MEAN_MOTION    = 15.04922900
ECCENTRICITY   = .00123967
INCLINATION    = 82.5161
RA_OF_ASC_NODE = 317.0750
ARG_OF_PERICENTER = 261.4906
MEAN_ANOMALY   = 98.4916

EPHEMERIS_TYPE = 0
CLASSIFICATION_TYPE = U
NORAD_CAT_ID   = 21397
ELEMENT_SET_NO = 999
REV_AT_EPOCH   = 86810
BSTAR          = .24136085E-3
MEAN_MOTION_DOT = .3449E-4
MEAN_MOTION_DDOT = 0

CCSDS_OMM_VERS = 2.0
CREATION_DATE  = 
ORIGINATOR     = 

OBJECT_NAME    = COSMOS 2151
OBJECT_ID      = 1991-042A
CENTER_NAME    = EARTH
REF_FRAME      = TEME
TIME_SYSTEM    = UTC
MEAN_ELEMENT_THEORY = SGP/SGP4

EPOCH          = 2026-03-30T05:27:36.632448
MEAN_MOTION    = 15.00194707
ECCENTRICITY   = .00122126
INCLINATION    = 82.4948
RA_OF_ASC_NODE = 63.8585
ARG_OF_PERICENTER = 358.7401
MEAN_ANOMALY   = 1.3790

EPHEMERIS_TYPE = 0
CLASSIFICATION_TYPE = U
NORAD_CAT_ID   = 21422
ELEMENT_SET_NO = 999
REV_AT_EPOCH   = 86627
BSTAR          = .21583038E-3
MEAN_MOTION_DOT = .2727E-4
MEAN_MOTION_DDOT = 0

CCSDS_OMM_VERS = 2.0
CREATION_DATE  = 
ORIGINATOR     = 

OBJECT_NAME    = SL-14 R/B
OBJECT_ID      = 1991-042B
CENTER_NAME    = EARTH
REF_FRAME      = TEME
TIME_SYSTEM    = UTC
MEAN_ELEMENT_THEORY = SGP/SGP4

EPOCH          = 2026-03-29T08:09:45.405504
MEAN_MOTION    = 14.81849750
ECCENTRICITY   = .00172546
INCLINATION    = 82.4956
RA_OF_ASC_NODE = 201.7595
ARG_OF_PERICENTER = 171.7581
MEAN_ANOMALY   = 188.3920

EPHEMERIS_TYPE = 0
CLASSIFICATION_TYPE = U
NORAD_CAT_ID   = 21423
ELEMENT_SET_NO = 999
REV_AT_EPOCH   = 85598
BSTAR          = .73416624E-4
MEAN_MOTION_DOT = .605E-5
MEAN_MOTION_DDOT = 0

